LEMUR-2-CHANUSIAK       
1 43697U 18088H   20116.53251101  .00002207  00000-0  94941-4 0  9994
2 43697  85.0348 112.4595 0018198 117.4305 242.8790 15.21864597 80787
LEMUR-2-ORZULAK         
1 43731U 18096N   20116.47162912  .00001754  00000-0  65551-4 0  9997
2 43731  97.4256 191.3349 0018855 316.8178  43.1583 15.28580749 78350
LEMUR-2-KOBYSZCZE       
1 43732U 18096P   20116.49032595  .00001684  00000-0  62781-4 0  9997
2 43732  97.4262 191.4851 0018978 316.9063  43.0690 15.28724290 78367
LEMUR-2-DULY            
1 43745U 18096AC  20116.43400499  .00001779  00000-0  66003-4 0  9993
2 43745  97.4255 191.3800 0018843 316.6635  43.3122 15.28803791 78366
LEMUR-2-VLADIMIR        
1 43746U 18096AD  20116.46513045  .00001784  00000-0  66080-4 0  9990
2 43746  97.4254 191.4818 0018875 316.8540  43.1220 15.28853596 78396
LEMUR-2-CHRISTINAHOLT   
1 43882U 18111G   20116.55223758  .00000828  00000-0  77248-4 0  9994
2 43882  97.7078  25.3771 0013188  65.1008 295.1583 14.96833208 72591
LEMUR-2-TINYKEV         
1 43883U 18111H   20116.53476903  .00000399  00000-0  39770-4 0  9996
2 43883  97.7077  25.4121 0013021  63.6864 296.5694 14.96903897 72590
LEMUR-2-REMY-COLTON     
1 43884U 18111J   20116.59071332  .00000019  00000-0  66778-5 0  9998
2 43884  97.7093  25.5243 0013059  61.8869 298.3671 14.96977269 72602
LEMUR-2-GUSTAVO         
1 43885U 18111K   20116.52007333 -.00000027  00000-0  27518-5 0  9991
2 43885  97.7091  25.4633 0013043  62.0328 298.2212 14.96931114 72596
LEMUR-2-ZO              
1 43886U 18111L   20116.55965452  .00001050  00000-0  96179-4 0  9994
2 43886  97.7094  25.5932 0012983  63.0147 297.2399 14.97015586 72609
LEMUR-2-NATALIEMURRAY   
1 43887U 18111M   20116.52267014 -.00000039  00000-0  16993-5 0  9995
2 43887  97.7096  25.6437 0013012  60.1163 300.1350 14.97138069 72606
LEMUR-2-SARAHBETTYBOO   
1 43888U 18111N   20116.57130873  .00000911  00000-0  83696-4 0  9994
2 43888  97.7108  25.7785 0013257  60.5752 299.6791 14.97187806 72612
LEMUR-2-DAISY-HARPER    
1 43889U 18111P   20116.54877452  .00000660  00000-0  61939-4 0  9990
2 43889  97.7097  25.8060 0012725  60.4814 299.7675 14.97262751 72608
LEMUR-2-JOHANLORAN      
1 44084U 19018G   20116.44979115  .00002197  00000-0  96598-4 0  9999
2 44084  97.4145 177.9846 0013027   2.8879 357.2430 15.22885933 59342
LEMUR-2-BEAUDACIOUS     
1 44085U 19018H   20116.45014114  .00001293  00000-0  58323-4 0  9990
2 44085  97.4147 177.9838 0013253   3.2346 356.8974 15.22755435 59342
LEMUR-2-ELHAM           
1 44086U 19018J   20116.41404449  .00002209  00000-0  96488-4 0  9993
2 44086  97.4151 178.0586 0013134   3.9803 356.1536 15.23108935 59348
LEMUR-2-VICTOR-ANDREW   
1 44087U 19018K   20116.40424165  .00002249  00000-0  98057-4 0  9998
2 44087  97.4152 178.0711 0012995   4.9281 355.2082 15.23144862 59340
LEMUR-2-LILLYJO         
1 44396U 19038L   20116.56864946  .00001647  00000-0  97699-4 0  9997
2 44396  97.5287  78.5159 0023495 312.0853  47.8379 15.12545431 44586
LEMUR-2-WANLI           
1 44402U 19038S   20116.51528529  .00001629  00000-0  96830-4 0  9990
2 44402  97.5294  78.4572 0023611 312.6414  47.2826 15.12481425 44582
LEMUR-2-MORAG           
1 44403U 19038T   20116.51147636  .00001825  00000-0  10795-3 0  9990
2 44403  97.5327  78.5744 0022437 316.4057  43.5400 15.12533957 44587
LEMUR-2-DUSTINTHEWIND   
1 44405U 19038V   20116.55891239  .00001681  00000-0  99402-4 0  9994
2 44405  97.5283  78.5084 0023476 311.8109  48.1116 15.12625823 44598
LEMUR-2-ALEX-MADDY      
1 44407U 19038X   20116.52361342  .00001156  00000-0  70146-4 0  9991
2 44407  97.5331  78.5541 0022534 316.7173  43.2287 15.12339374 44577
LEMUR-2-EJATTA          
1 44409U 19038Z   20116.40673016  .00001189  00000-0  71217-4 0  9990
2 44409  97.5281  78.3885 0023269 311.8429  48.0815 15.12749782 44576
LEMUR-2-GREGROBINSON    
1 44411U 19038AB  20116.52532760  .00001682  00000-0  99979-4 0  9999
2 44411  97.5337  78.5898 0022592 317.1016  42.8452 15.12467210 44253
LEMUR-2-YNDRD           
1 44413U 19038AD  20116.51374536  .00001046  00000-0  63825-4 0  9990
2 44413  97.5322  78.5401 0022394 316.4252  43.5209 15.12345676 44588
LEMUR-2-JPGSQUARED      
1 44855U 19089D   20116.49523584  .00000675  00000-0  61358-4 0  9998
2 44855  36.9675  51.6127 0006559 342.7100  17.3419 14.98838337 20403
LEMUR-2-HIMOMANDDAD     
1 44860U 19089J   20116.50700292  .00000450  00000-0  43200-4 0  9996
2 44860  36.9672  51.7069 0006764 335.2384  24.8038 14.98697750 20403
LEMUR-2-PAPPY           
1 44861U 19089K   20116.16934944  .00000408  00000-0  39685-4 0  9997
2 44861  36.9672  53.6344 0006665 336.5986  23.4450 14.98749808 20295
